[{"OBJECT_NAME":"STARLINK-36877","OBJECT_ID":"2026-035T","EPOCH":"2026-03-21T19:05:35.002464","MEAN_MOTION":15.80964183,"ECCENTRICITY":0.00015357,"INCLINATION":97.29,"RA_OF_ASC_NODE":13.8544,"ARG_OF_PERICENTER":123.8118,"MEAN_ANOMALY":236.3297,"EPHEMERIS_TYPE":0,"CLASSIFICATION_TYPE":"U","NORAD_CAT_ID":67896,"ELEMENT_SET_NO":999,"REV_AT_EPOCH":575,"BSTAR":0.0024437685,"MEAN_MOTION_DOT":0.00499127,"MEAN_MOTION_DDOT":0},{"OBJECT_NAME":"STARLINK-36870","OBJECT_ID":"2026-035U","EPOCH":"2026-03-21T22:00:00.999936","MEAN_MOTION":15.75182183,"ECCENTRICITY":0.0001169,"INCLINATION":97.2857,"RA_OF_ASC_NODE":13.9806,"ARG_OF_PERICENTER":93.7384,"MEAN_ANOMALY":228.7225,"EPHEMERIS_TYPE":0,"CLASSIFICATION_TYPE":"U","NORAD_CAT_ID":67897,"ELEMENT_SET_NO":999,"REV_AT_EPOCH":572,"BSTAR":-1.5143979e-5,"MEAN_MOTION_DOT":-2.387e-5,"MEAN_MOTION_DDOT":0},{"OBJECT_NAME":"STARLINK-36810","OBJECT_ID":"2026-035V","EPOCH":"2026-03-21T22:00:00.999936","MEAN_MOTION":15.75210194,"ECCENTRICITY":0.00016787,"INCLINATION":97.2871,"RA_OF_ASC_NODE":13.9571,"ARG_OF_PERICENTER":110.1987,"MEAN_ANOMALY":160.258,"EPHEMERIS_TYPE":0,"CLASSIFICATION_TYPE":"U","NORAD_CAT_ID":67898,"ELEMENT_SET_NO":999,"REV_AT_EPOCH":572,"BSTAR":-0.00032659488,"MEAN_MOTION_DOT":-0.00048612,"MEAN_MOTION_DDOT":0},{"OBJECT_NAME":"STARLINK-36878","OBJECT_ID":"2026-035W","EPOCH":"2026-03-21T18:59:05.548416","MEAN_MOTION":15.80888179,"ECCENTRICITY":8.844e-5,"INCLINATION":97.2881,"RA_OF_ASC_NODE":13.8579,"ARG_OF_PERICENTER":73.5981,"MEAN_ANOMALY":286.5384,"EPHEMERIS_TYPE":0,"CLASSIFICATION_TYPE":"U","NORAD_CAT_ID":67899,"ELEMENT_SET_NO":999,"REV_AT_EPOCH":575,"BSTAR":0.0012831574,"MEAN_MOTION_DOT":0.00253765,"MEAN_MOTION_DDOT":0},{"OBJECT_NAME":"STARLINK-36361","OBJECT_ID":"2026-035X","EPOCH":"2026-03-21T18:58:00.643872","MEAN_MOTION":15.80953838,"ECCENTRICITY":0.00018912,"INCLINATION":97.288,"RA_OF_ASC_NODE":13.86,"ARG_OF_PERICENTER":122.1834,"MEAN_ANOMALY":237.9618,"EPHEMERIS_TYPE":0,"CLASSIFICATION_TYPE":"U","NORAD_CAT_ID":67900,"ELEMENT_SET_NO":999,"REV_AT_EPOCH":575,"BSTAR":0.0022374087,"MEAN_MOTION_DOT":0.00454367,"MEAN_MOTION_DDOT":0},{"OBJECT_NAME":"STARLINK-36336","OBJECT_ID":"2026-035Y","EPOCH":"2026-03-21T22:00:00.999936","MEAN_MOTION":15.75207654,"ECCENTRICITY":0.00013446,"INCLINATION":97.287,"RA_OF_ASC_NODE":13.9738,"ARG_OF_PERICENTER":75.7544,"MEAN_ANOMALY":228.7009,"EPHEMERIS_TYPE":0,"CLASSIFICATION_TYPE":"U","NORAD_CAT_ID":67901,"ELEMENT_SET_NO":999,"REV_AT_EPOCH":577,"BSTAR":-0.000318398,"MEAN_MOTION_DOT":-0.00047394,"MEAN_MOTION_DDOT":0},{"OBJECT_NAME":"STARLINK-36876","OBJECT_ID":"2026-035Z","EPOCH":"2026-03-21T18:56:55.687488","MEAN_MOTION":15.80929264,"ECCENTRICITY":0.00011372,"INCLINATION":97.2884,"RA_OF_ASC_NODE":13.8626,"ARG_OF_PERICENTER":103.5873,"MEAN_ANOMALY":256.5522,"EPHEMERIS_TYPE":0,"CLASSIFICATION_TYPE":"U","NORAD_CAT_ID":67902,"ELEMENT_SET_NO":999,"REV_AT_EPOCH":575,"BSTAR":0.0020572216,"MEAN_MOTION_DOT":0.00415426,"MEAN_MOTION_DDOT":0},{"OBJECT_NAME":"STARLINK-36257","OBJECT_ID":"2026-035AA","EPOCH":"2026-03-21T18:04:04.726272","MEAN_MOTION":15.75387744,"ECCENTRICITY":0.00017629,"INCLINATION":97.2865,"RA_OF_ASC_NODE":13.7605,"ARG_OF_PERICENTER":162.614,"MEAN_ANOMALY":197.5186,"EPHEMERIS_TYPE":0,"CLASSIFICATION_TYPE":"U","NORAD_CAT_ID":67903,"ELEMENT_SET_NO":999,"REV_AT_EPOCH":574,"BSTAR":0.0027852952,"MEAN_MOTION_DOT":0.00441274,"MEAN_MOTION_DDOT":0},{"OBJECT_NAME":"STARLINK-36814","OBJECT_ID":"2026-036A","EPOCH":"2026-03-21T15:33:31.942368","MEAN_MOTION":15.50659778,"ECCENTRICITY":0.00017297,"INCLINATION":43.0002,"RA_OF_ASC_NODE":179.2551,"ARG_OF_PERICENTER":261.4102,"MEAN_ANOMALY":98.6562,"EPHEMERIS_TYPE":0,"CLASSIFICATION_TYPE":"U","NORAD_CAT_ID":67904,"ELEMENT_SET_NO":999,"REV_AT_EPOCH":553,"BSTAR":0.0014907072,"MEAN_MOTION_DOT":0.00088359,"MEAN_MOTION_DDOT":0},{"OBJECT_NAME":"STARLINK-36729","OBJECT_ID":"2026-036B","EPOCH":"2026-03-21T15:58:51.316608","MEAN_MOTION":15.49969881,"ECCENTRICITY":0.00065085,"INCLINATION":43.0032,"RA_OF_ASC_NODE":178.507,"ARG_OF_PERICENTER":277.9163,"MEAN_ANOMALY":82.0958,"EPHEMERIS_TYPE":0,"CLASSIFICATION_TYPE":"U","NORAD_CAT_ID":67905,"ELEMENT_SET_NO":999,"REV_AT_EPOCH":554,"BSTAR":0.0020163965,"MEAN_MOTION_DOT":0.00117248,"MEAN_MOTION_DDOT":0},{"OBJECT_NAME":"STARLINK-36763","OBJECT_ID":"2026-036C","EPOCH":"2026-03-21T00:00:00.999648","MEAN_MOTION":15.50983574,"ECCENTRICITY":0.00014719,"INCLINATION":43.0005,"RA_OF_ASC_NODE":182.3255,"ARG_OF_PERICENTER":274.0677,"MEAN_ANOMALY":354.6883,"EPHEMERIS_TYPE":0,"CLASSIFICATION_TYPE":"U","NORAD_CAT_ID":67906,"ELEMENT_SET_NO":999,"REV_AT_EPOCH":546,"BSTAR":-0.038553266,"MEAN_MOTION_DOT":-0.02044709,"MEAN_MOTION_DDOT":0},{"OBJECT_NAME":"STARLINK-36742","OBJECT_ID":"2026-036D","EPOCH":"2026-03-21T17:29:08.423808","MEAN_MOTION":15.5060449,"ECCENTRICITY":0.00012786,"INCLINATION":42.9996,"RA_OF_ASC_NODE":178.116,"ARG_OF_PERICENTER":267.6771,"MEAN_ANOMALY":92.3943,"EPHEMERIS_TYPE":0,"CLASSIFICATION_TYPE":"U","NORAD_CAT_ID":67907,"ELEMENT_SET_NO":999,"REV_AT_EPOCH":555,"BSTAR":0.0017211621,"MEAN_MOTION_DOT":0.00102049,"MEAN_MOTION_DDOT":0},{"OBJECT_NAME":"STARLINK-36827","OBJECT_ID":"2026-036E","EPOCH":"2026-03-21T22:00:00.999936","MEAN_MOTION":15.44873833,"ECCENTRICITY":0.00015516,"INCLINATION":42.9997,"RA_OF_ASC_NODE":176.7378,"ARG_OF_PERICENTER":282.8643,"MEAN_ANOMALY":161.0668,"EPHEMERIS_TYPE":0,"CLASSIFICATION_TYPE":"U","NORAD_CAT_ID":67908,"ELEMENT_SET_NO":999,"REV_AT_EPOCH":561,"BSTAR":-0.04520588,"MEAN_MOTION_DOT":-0.019446,"MEAN_MOTION_DDOT":0},{"OBJECT_NAME":"STARLINK-36822","OBJECT_ID":"2026-036F","EPOCH":"2026-03-21T15:50:21.543648","MEAN_MOTION":15.50685632,"ECCENTRICITY":1.791e-5,"INCLINATION":42.9968,"RA_OF_ASC_NODE":178.457,"ARG_OF_PERICENTER":89.2305,"MEAN_ANOMALY":270.8576,"EPHEMERIS_TYPE":0,"CLASSIFICATION_TYPE":"U","NORAD_CAT_ID":67909,"ELEMENT_SET_NO":999,"REV_AT_EPOCH":554,"BSTAR":0.0015159786,"MEAN_MOTION_DOT":0.00089964,"MEAN_MOTION_DDOT":0},{"OBJECT_NAME":"STARLINK-36847","OBJECT_ID":"2026-036G","EPOCH":"2026-03-21T15:55:14.730816","MEAN_MOTION":15.50600933,"ECCENTRICITY":0.00026297,"INCLINATION":43.0042,"RA_OF_ASC_NODE":178.4878,"ARG_OF_PERICENTER":294.5188,"MEAN_ANOMALY":65.5398,"EPHEMERIS_TYPE":0,"CLASSIFICATION_TYPE":"U","NORAD_CAT_ID":67910,"ELEMENT_SET_NO":999,"REV_AT_EPOCH":554,"BSTAR":0.001879945,"MEAN_MOTION_DOT":0.00111624,"MEAN_MOTION_DDOT":0},{"OBJECT_NAME":"STARLINK-36736","OBJECT_ID":"2026-036H","EPOCH":"2026-03-21T22:00:00.999936","MEAN_MOTION":15.42374154,"ECCENTRICITY":0.00012552,"INCLINATION":42.9993,"RA_OF_ASC_NODE":176.5115,"ARG_OF_PERICENTER":282.9962,"MEAN_ANOMALY":252.0997,"EPHEMERIS_TYPE":0,"CLASSIFICATION_TYPE":"U","NORAD_CAT_ID":67911,"ELEMENT_SET_NO":999,"REV_AT_EPOCH":561,"BSTAR":-0.049863301,"MEAN_MOTION_DOT":-0.01966504,"MEAN_MOTION_DDOT":0},{"OBJECT_NAME":"STARLINK-36676","OBJECT_ID":"2026-036J","EPOCH":"2026-03-21T22:00:00.999936","MEAN_MOTION":15.46711259,"ECCENTRICITY":0.00015614,"INCLINATION":42.9999,"RA_OF_ASC_NODE":176.5863,"ARG_OF_PERICENTER":286.1288,"MEAN_ANOMALY":218.8076,"EPHEMERIS_TYPE":0,"CLASSIFICATION_TYPE":"U","NORAD_CAT_ID":67912,"ELEMENT_SET_NO":999,"REV_AT_EPOCH":561,"BSTAR":-0.042301781,"MEAN_MOTION_DOT":-0.01940027,"MEAN_MOTION_DDOT":0},{"OBJECT_NAME":"STARLINK-36690","OBJECT_ID":"2026-036K","EPOCH":"2026-03-21T22:00:00.999936","MEAN_MOTION":15.47699037,"ECCENTRICITY":9.53e-5,"INCLINATION":42.9999,"RA_OF_ASC_NODE":176.5649,"ARG_OF_PERICENTER":286.3204,"MEAN_ANOMALY":226.8598,"EPHEMERIS_TYPE":0,"CLASSIFICATION_TYPE":"U","NORAD_CAT_ID":67913,"ELEMENT_SET_NO":999,"REV_AT_EPOCH":561,"BSTAR":-0.041525782,"MEAN_MOTION_DOT":-0.01967902,"MEAN_MOTION_DDOT":0},{"OBJECT_NAME":"STARLINK-36724","OBJECT_ID":"2026-036L","EPOCH":"2026-03-21T22:00:00.999936","MEAN_MOTION":15.49714837,"ECCENTRICITY":9.088e-5,"INCLINATION":43,"RA_OF_ASC_NODE":176.5095,"ARG_OF_PERICENTER":280.8636,"MEAN_ANOMALY":254.6397,"EPHEMERIS_TYPE":0,"CLASSIFICATION_TYPE":"U","NORAD_CAT_ID":67914,"ELEMENT_SET_NO":999,"REV_AT_EPOCH":561,"BSTAR":-0.037986573,"MEAN_MOTION_DOT":-0.01937014,"MEAN_MOTION_DDOT":0},{"OBJECT_NAME":"STARLINK-36723","OBJECT_ID":"2026-036M","EPOCH":"2026-03-21T22:00:00.999936","MEAN_MOTION":15.45807705,"ECCENTRICITY":0.0001458,"INCLINATION":42.9994,"RA_OF_ASC_NODE":176.4552,"ARG_OF_PERICENTER":279.2973,"MEAN_ANOMALY":278.7188,"EPHEMERIS_TYPE":0,"CLASSIFICATION_TYPE":"U","NORAD_CAT_ID":67915,"ELEMENT_SET_NO":999,"REV_AT_EPOCH":561,"BSTAR":-0.04412208,"MEAN_MOTION_DOT":-0.01958597,"MEAN_MOTION_DDOT":0},{"OBJECT_NAME":"STARLINK-36721","OBJECT_ID":"2026-036N","EPOCH":"2026-03-21T22:00:00.999936","MEAN_MOTION":15.44633618,"ECCENTRICITY":0.00013764,"INCLINATION":42.9992,"RA_OF_ASC_NODE":176.4444,"ARG_OF_PERICENTER":275.8005,"MEAN_ANOMALY":286.2758,"EPHEMERIS_TYPE":0,"CLASSIFICATION_TYPE":"U","NORAD_CAT_ID":67916,"ELEMENT_SET_NO":999,"REV_AT_EPOCH":561,"BSTAR":-0.04588418,"MEAN_MOTION_DOT":-0.01956059,"MEAN_MOTION_DDOT":0},{"OBJECT_NAME":"STARLINK-36722","OBJECT_ID":"2026-036P","EPOCH":"2026-03-21T22:00:00.999936","MEAN_MOTION":15.45435212,"ECCENTRICITY":0.00014396,"INCLINATION":43,"RA_OF_ASC_NODE":176.2154,"ARG_OF_PERICENTER":268.2243,"MEAN_ANOMALY":26.6264,"EPHEMERIS_TYPE":0,"CLASSIFICATION_TYPE":"U","NORAD_CAT_ID":67917,"ELEMENT_SET_NO":999,"REV_AT_EPOCH":561,"BSTAR":-0.044468434,"MEAN_MOTION_DOT":-0.01949678,"MEAN_MOTION_DDOT":0},{"OBJECT_NAME":"STARLINK-36341","OBJECT_ID":"2026-036Q","EPOCH":"2026-03-21T16:30:43.207776","MEAN_MOTION":15.50611199,"ECCENTRICITY":0.00015857,"INCLINATION":43.0012,"RA_OF_ASC_NODE":178.6798,"ARG_OF_PERICENTER":267.5258,"MEAN_ANOMALY":92.5421,"EPHEMERIS_TYPE":0,"CLASSIFICATION_TYPE":"U","NORAD_CAT_ID":67918,"ELEMENT_SET_NO":999,"REV_AT_EPOCH":554,"BSTAR":0.0019120006,"MEAN_MOTION_DOT":0.00113598,"MEAN_MOTION_DDOT":0}]
